STARLINK-5402           
1 54869C 22177BB  26088.04423611  .00474560  00000+0  18054-1 0   889
2 54869  42.9997  12.6195 0001063 268.3754 197.3761 15.25725080    13
STARLINK-5401           
1 54870C 22177BC  26088.08034722  .00002554  00000+0  94883-4 0   883
2 54870  43.0004  11.3867 0001368 262.4564 115.4563 15.26744103    19
STARLINK-5397           
1 54871C 22177BD  26088.15256944  .00032639  00000+0  12129-2 0   882
2 54871  43.0003  11.9279 0001116 268.7542 105.6316 15.26718693    10
STARLINK-5091           
1 54873C 22177BF  26088.09215278  .00099367  00000+0  36882-2 0   885
2 54873  43.0007  12.0670 0001805 258.0716 228.6555 15.26724803    14
STARLINK-5277           
1 55269C 23010A   26088.03312500 -.00033803  00000+0 -28329-2 0   884
2 55269  70.0026 355.7684 0002907 273.5925   3.5377 14.98346554    18
STARLINK-5306           
1 55271C 23010C   26088.09284722 -.00030062  00000+0 -25194-2 0   888
2 55271  70.0026 355.6427 0002797 275.4773 301.1976 14.98344950    14
STARLINK-5310           
1 55272C 23010D   26088.03520833 -.00035861  00000+0 -30051-2 0   889
2 55272  70.0024 355.6917 0002983 273.7001  82.1740 14.98351635    12
STARLINK-5291           
1 55273C 23010E   26088.04493056 -.00033902  00000+0 -28411-2 0   888
2 55273  70.0025 355.5161 0002621 274.0370 269.3234 14.98348952    11
STARLINK-5236           
1 55274C 23010F   26088.09909722  .00042590  00000+0  35684-2 0   887
2 55274  70.0017 335.6818 0002797 270.9127  48.0780 14.98318744    14
STARLINK-5260           
1 55275C 23010G   26088.09493056  .00018978  00000+0  15905-2 0   883
2 55275  70.0018 335.6442 0002866 273.1952  67.5669 14.98320201    10
STARLINK-5261           
1 55276C 23010H   26088.05187500  .00011156  00000+0  93496-3 0   887
2 55276  70.0018 335.7499 0002749 272.9030 196.5695 14.98325005    17
STARLINK-5299           
1 55277C 23010J   26088.14145833 -.00000217  00000+0 -18178-4 0   884
2 55277  70.0027 355.4452 0002903 275.5725 270.7674 14.98328546    13
STARLINK-5289           
1 55278C 23010K   26088.14909722  .00006949  00000+0  58241-3 0   880
2 55278  70.0027 355.3239 0002769 272.4394  45.1259 14.98325464    13
STARLINK-5331           
1 55280C 23010M   26088.06229167 -.00037504  00000+0 -31430-2 0   885
2 55280  70.0025 355.7602 0002975 273.5958  93.2909 14.98349417    19
STARLINK-5298           
1 55281C 23010N   26088.10604167  .00022161  00000+0  18571-2 0   880
2 55281  70.0024 355.4835 0002972 273.4341 126.9060 14.98322293    11
STARLINK-5330           
1 55282C 23010P   26088.01993056 -.00021491  00000+0 -18011-2 0   885
2 55282  70.0025 355.5469 0002981 270.0370 160.1242 14.98340615    12
STARLINK-5317           
1 55283C 23010Q   26088.03868056 -.00032290  00000+0 -27056-2 0   887
2 55283  70.0023 355.6279 0002950 271.5933 148.0223 14.98353329    18
STARLINK-5337           
1 55284C 23010R   26088.08173611 -.00025801  00000+0 -21622-2 0   882
2 55284  70.0026 355.3896 0002947 272.5593 131.7880 14.98343575    13
STARLINK-5332           
1 55285C 23010S   26088.08729167  .00037150  00000+0  31131-2 0   880
2 55285  70.0010 315.4704 0002903 275.0921 295.7896 14.98314904    19
STARLINK-5338           
1 55286C 23010T   26088.07409722  .00002026  00000+0  16978-3 0   889
2 55286  70.0019 335.6442 0002878 274.4247 359.9038 14.98328463    13
STARLINK-5341           
1 55287C 23010U   26088.13937500  .00005927  00000+0  49671-3 0   886
2 55287  70.0009 315.5636 0002832 267.6654 314.8579 14.98329081    18
STARLINK-5311           
1 55288C 23010V   26088.04145833 -.00011038  00000+0 -92502-3 0   880
2 55288  70.0019 335.6505 0002894 271.9172 253.0364 14.98336471    16
STARLINK-5320           
1 55289C 23010W   26088.11020833  .00011533  00000+0  96651-3 0   888
2 55289  70.0017 335.5771 0002967 272.1328 174.4077 14.98326221    15
STARLINK-5266           
1 55290C 23010X   26088.10326389  .00020005  00000+0  16766-2 0   886
2 55290  70.0019 335.5444 0002983 274.1635 179.9517 14.98319437    17
STARLINK-5327           
1 55291C 23010Y   26088.06645833  .00018096  00000+0  15166-2 0   880
2 55291  70.0018 335.7353 0002847 272.8168 252.7898 14.98321884    14
STARLINK-5325           
1 55292C 23010Z   26088.07687500  .00008228  00000+0  68957-3 0   882
2 55292  70.0020 335.5350 0002870 272.3014 107.0415 14.98324389    14
STARLINK-5287           
1 55293C 23010AA  26088.09493056  .00013254  00000+0  11108-2 0   886
2 55293  70.0019 335.5155 0002923 272.6223 181.5716 14.98323356    14
STARLINK-5286           
1 55294C 23010AB  26088.06645833 -.00024935  00000+0 -20897-2 0   881
2 55294  70.0026 355.4788 0002842 273.0518   3.8956 14.98344038    10
STARLINK-5293           
1 55295C 23010AC  26088.03868056  .00015982  00000+0  13396-2 0   889
2 55295  70.0027 355.8035 0002827 273.3820 348.6778 14.98316088    19
STARLINK-5285           
1 55296C 23010AD  26088.14701389  .00019281  00000+0  16155-2 0   889
2 55296  70.0015 335.2827 0002702 274.9560 190.1095 14.98329345    10
STARLINK-5284           
1 55297C 23010AE  26088.04284722 -.00018163  00000+0 -15222-2 0   880
2 55297  70.0018 335.5960 0002736 272.7432 305.6173 14.98338807    19
STARLINK-5270           
1 55299C 23010AG  26088.04979167  .00002663  00000+0  22317-3 0   886
2 55299  70.0016 335.5042 0002816 273.5394  49.7942 14.98327643    11
STARLINK-5308           
1 55300C 23010AH  26088.06854167  .00040159  00000+0  33640-2 0   885
2 55300  70.0016 335.4297 0002842 273.4195 173.4311 14.98327637    10
STARLINK-5321           
1 55302C 23010AK  26088.14979167  .00034769  00000+0  29125-2 0   887
2 55302  70.0016 335.2982 0002911 273.7315 183.7224 14.98331488    11
STARLINK-5322           
1 55303C 23010AL  26088.04701389 -.00019962  00000+0 -16729-2 0   882
2 55303  70.0025 355.4516 0002859 274.4751 325.1233 14.98342805    19
STARLINK-5318           
1 55304C 23010AM  26088.13798611  .00025066  00000+0  21006-2 0   881
2 55304  70.0016 335.2289 0002850 274.3317 209.6080 14.98318475    13
STARLINK-5316           
1 55305C 23010AN  26088.05743056  .00007107  00000+0  59545-3 0   882
2 55305  70.0018 335.8117 0002742 273.1507 158.6993 14.98339914    17
STARLINK-5295           
1 55306C 23010AP  26088.11437500  .00023117  00000+0  19367-2 0   880
2 55306  70.0007 315.6150 0002728 288.0557 249.5840 14.98331424    12
STARLINK-5288           
1 55307C 23010AQ  26088.04493056  .00022731  00000+0  19051-2 0   882
2 55307  70.0008 315.8160 0002855 272.4763 228.2872 14.98317651    19
STARLINK-5315           
1 55309C 23010AS  26088.15326389 -.00010239  00000+0 -85802-3 0   880
2 55309  70.0009 315.2407 0002977 274.0680   0.9660 14.98338181    12
STARLINK-5309           
1 55310C 23010AT  26088.09493056  .00022491  00000+0  18853-2 0   883
2 55310  70.0006 315.6122 0002594 277.0514 200.9073 14.98310361    13
STARLINK-5312           
1 55311C 23010AU  26088.06020833  .00013865  00000+0  11620-2 0   880
2 55311  70.0009 315.7259 0002657 275.8584 352.3152 14.98321411    10
STARLINK-5296           
1 55312C 23010AV  26088.07895833  .00043287  00000+0  36276-2 0   887
2 55312  70.0010 315.3892 0003167 274.0065 252.8717 14.98308877    16
STARLINK-5313           
1 55313C 23010AW  26088.14145833 -.00001061  00000+0 -88904-4 0   887
2 55313  70.0007 315.4444 0002891 274.1579 139.6276 14.98325973    19
STARLINK-5305           
1 55314C 23010AX  26088.03104167  .00019395  00000+0  16254-2 0   885
2 55314  70.0009 315.7467 0002764 273.1947 242.7173 14.98320317    16
STARLINK-4623           
1 55315C 23010AY  26088.04354167  .00004221  00000+0  35376-3 0   883
2 55315  70.0020 335.6694 0002978 272.2915 242.2821 14.98326776    15
STARLINK-5257           
1 55316C 23010AZ  26088.12131944  .00005537  00000+0  46402-3 0   882
2 55316  70.0010 315.3602 0002901 273.5039 166.7732 14.98327949    10
STARLINK-5265           
1 55317C 23010BA  26088.13868056 -.00002317  00000+0 -19418-3 0   887
2 55317  70.0007 315.4534 0003079 273.9443 147.4011 14.98334282    16
STARLINK-5180           
1 55318C 23010BB  26088.14770833 -.00001980  00000+0 -16591-3 0   888
2 55318  70.0007 315.3784 0002822 273.8002 218.7425 14.98334935    14
STARLINK-5196           
1 55319C 23010BC  26088.10187500  .00020439  00000+0  17129-2 0   883
2 55319  70.0009 315.4693 0002738 275.4612 352.4521 14.98320975    10
STARLINK-5492           
1 55331C 23013A   26088.13243056  .00617450  00000+0  24553-1 0   885
2 55331  43.0006 193.4342 0001827 273.2859 278.2838 15.24181944    10
STARLINK-5491           
1 55332C 23013B   26088.08173611  .00002139  00000+0  79496-4 0   880
2 55332  43.0004 179.4477 0001539 270.1545 170.5715 15.26728764    17
STARLINK-5493           
1 55333C 23013C   26088.11506944  .00613890  00000+0  24399-1 0   885
2 55333  43.0005 193.4581 0001873 273.5878 212.8807 15.24200736    12
STARLINK-5652           
1 55334C 23013D   26088.09284722  .00593710  00000+0  23719-1 0   883
2 55334  43.0007 193.5114 0001717 272.3751  79.5996 15.24038548    19
STARLINK-5660           
1 55335C 23013E   26088.08520833  .00562860  00000+0  23356-1 0   888
2 55335  43.0006 193.7747 0001682 259.7478 359.9160 15.22781603    12
STARLINK-5655           
1 55336C 23013F   26088.09145833  .00022333  00000+0  83043-3 0   880
2 55336  43.0011 178.9724 0001506 258.5408  18.2555 15.26703428    10
STARLINK-5667           
1 55337C 23013G   26088.12062500  .00029041  00000+0  10792-2 0   887
2 55337  43.0009 179.1429 0001476 270.7715  45.0702 15.26719046    11
STARLINK-5658           
1 55338C 23013H   26088.10881944  .00566710  00000+0  24343-1 0   882
2 55338  43.0006 193.6757 0001801 270.6333 104.0583 15.21610783    17
STARLINK-5671           
1 55339C 23013J   26088.06298611 -.00623930  00000+0 -36329-1 0   888
2 55339  43.0003 194.2641 0001211 267.9366  73.5316 15.11571799    10
